{"type":"FeatureCollection","features":[{"type":"Feature","properties":{"name_ar":"اللاذقية","name_en":"Latakia"},"geometry":{"type":"Polygon","coordinates":[[[35.98,34.72],[35.9,34.88],[35.82,35.12],[35.8,35.42],[35.8,35.62],[35.84,35.85],[35.9,36.05],[35.97,36.22],[36.03,36.4],[36.07,36.43],[35.95,36.47],[36.12,36.57],[36.18,36.32],[36.22,36.05],[36.24,35.75],[36.22,35.45],[36.18,35.18],[36.12,35.02],[36.05,34.88],[35.98,34.72]]]}},{"type":"Feature","properties":{"name_ar":"طرطوس","name_en":"Tartus"},"geometry":{"type":"Polygon","coordinates":[[[35.8,34.48],[35.82,34.58],[35.84,34.68],[35.9,34.78],[35.98,34.72],[36.05,34.88],[36.12,35.02],[36.18,35.18],[36.32,35.08],[36.42,34.92],[36.48,34.72],[36.45,34.52],[36.38,34.32],[36.28,34.18],[36.18,34.08],[36.08,34.02],[35.97,34.18],[35.92,34.28],[35.87,34.38],[35.8,34.48]]]}},{"type":"Feature","properties":{"name_ar":"إدلب","name_en":"Idlib"},"geometry":{"type":"Polygon","coordinates":[[[36.12,36.57],[36.31,36.67],[36.55,36.78],[36.65,36.82],[36.82,36.8],[36.72,36.58],[36.68,36.32],[36.7,36.08],[36.72,35.82],[36.78,35.58],[36.82,35.32],[36.85,35.08],[36.88,34.92],[36.7,34.9],[36.52,34.88],[36.35,34.9],[36.18,34.95],[36.12,35.02],[36.18,35.18],[36.22,35.45],[36.24,35.75],[36.22,36.05],[36.18,36.32],[36.12,36.57]]]}},{"type":"Feature","properties":{"name_ar":"حلب","name_en":"Aleppo"},"geometry":{"type":"Polygon","coordinates":[[[36.82,36.8],[37.07,36.98],[37.35,37.1],[37.82,37.12],[38.21,37.06],[38.12,36.8],[38.08,36.55],[38.1,36.28],[38.15,36.02],[38.2,35.78],[37.95,35.65],[37.68,35.55],[37.42,35.45],[37.15,35.35],[36.95,35.2],[36.88,34.92],[36.85,35.08],[36.82,35.32],[36.78,35.58],[36.72,35.82],[36.7,36.08],[36.68,36.32],[36.72,36.58],[36.82,36.8]]]}},{"type":"Feature","properties":{"name_ar":"الرقة","name_en":"Ar-Raqqah"},"geometry":{"type":"Polygon","coordinates":[[[38.21,37.06],[38.77,37.17],[39.22,37.15],[39.85,37.05],[40.0,37.03],[40.08,36.8],[40.05,36.52],[40.12,36.28],[40.2,36.02],[40.25,35.78],[40.28,35.58],[39.95,35.55],[39.6,35.52],[39.25,35.5],[38.9,35.52],[38.58,35.55],[38.35,35.6],[38.2,35.78],[38.15,36.02],[38.1,36.28],[38.08,36.55],[38.12,36.8],[38.21,37.06]]]}},{"type":"Feature","properties":{"name_ar":"الحسكة","name_en":"Al-Hasakah"},"geometry":{"type":"Polygon","coordinates":[[[40.0,37.03],[40.49,37.09],[40.88,37.13],[41.25,37.17],[41.88,37.33],[42.37,37.27],[42.37,36.8],[42.37,36.2],[42.37,35.65],[41.8,35.62],[41.2,35.6],[40.65,35.58],[40.28,35.58],[40.25,35.78],[40.2,36.02],[40.12,36.28],[40.05,36.52],[40.08,36.8],[40.0,37.03]]]}},{"type":"Feature","properties":{"name_ar":"دير الزور","name_en":"Deir ez-Zor"},"geometry":{"type":"Polygon","coordinates":[[[38.35,35.6],[38.58,35.55],[38.9,35.52],[39.25,35.5],[39.6,35.52],[39.95,35.55],[40.28,35.58],[40.65,35.58],[41.2,35.6],[41.8,35.62],[42.37,35.65],[42.37,34.8],[42.37,34.05],[42.2,33.87],[41.78,33.5],[41.25,33.1],[40.7,32.8],[40.0,32.6],[39.6,32.5],[39.2,32.45],[38.82,32.48],[38.52,32.65],[38.28,33.0],[38.1,33.4],[38.0,33.8],[37.95,34.2],[38.02,34.55],[38.12,34.9],[38.35,35.3],[38.35,35.6]]]}},{"type":"Feature","properties":{"name_ar":"حماة","name_en":"Hama"},"geometry":{"type":"Polygon","coordinates":[[[36.88,34.92],[36.95,35.2],[37.15,35.35],[37.42,35.45],[37.68,35.55],[37.95,35.65],[38.2,35.78],[38.15,35.52],[38.08,35.25],[38.02,35.0],[37.9,34.82],[37.7,34.68],[37.45,34.55],[37.18,34.48],[36.98,34.42],[36.82,34.4],[36.65,34.5],[36.48,34.65],[36.42,34.8],[36.42,34.92],[36.32,35.08],[36.18,35.18],[36.22,35.45],[36.35,35.12],[36.52,34.98],[36.7,34.9],[36.88,34.92]]]}},{"type":"Feature","properties":{"name_ar":"حمص","name_en":"Homs"},"geometry":{"type":"Polygon","coordinates":[[[36.42,34.8],[36.48,34.65],[36.65,34.5],[36.82,34.4],[36.98,34.42],[37.18,34.48],[37.45,34.55],[37.7,34.68],[37.9,34.82],[38.02,35.0],[38.08,35.25],[38.15,35.52],[38.2,35.78],[38.35,35.3],[38.15,34.9],[38.02,34.52],[37.98,34.08],[37.88,33.65],[37.78,33.3],[37.62,33.0],[37.4,32.78],[37.18,32.6],[36.98,32.52],[36.82,32.5],[36.62,32.58],[36.42,32.7],[36.22,32.8],[36.05,32.9],[35.98,33.05],[36.02,33.28],[36.05,33.52],[36.1,33.72],[36.18,33.88],[36.32,33.98],[36.48,34.05],[36.45,34.3],[36.42,34.55],[36.42,34.8]]]}},{"type":"Feature","properties":{"name_ar":"ريف دمشق","name_en":"Rif Dimashq"},"geometry":{"type":"Polygon","coordinates":[[[35.82,33.48],[35.9,33.62],[36.0,33.78],[36.05,33.9],[36.18,33.88],[36.32,33.98],[36.48,34.05],[36.48,34.2],[36.52,34.38],[36.6,34.52],[36.72,34.38],[36.8,34.18],[36.85,33.98],[36.88,33.75],[36.82,33.58],[36.55,33.48],[36.42,33.48],[36.32,33.52],[36.25,33.62],[36.35,33.72],[36.48,33.72],[36.58,33.62],[36.62,33.48],[36.58,33.35],[36.42,33.2],[36.22,33.1],[36.1,32.98],[35.98,32.88],[35.9,32.72],[35.88,32.6],[35.8,32.7],[35.78,32.88],[35.8,33.12],[35.82,33.28],[35.82,33.48]]]}},{"type":"Feature","properties":{"name_ar":"دمشق","name_en":"Damascus"},"geometry":{"type":"Polygon","coordinates":[[[36.22,33.48],[36.32,33.46],[36.42,33.47],[36.5,33.52],[36.5,33.6],[36.45,33.67],[36.35,33.68],[36.25,33.66],[36.18,33.6],[36.18,33.52],[36.22,33.48]]]}},{"type":"Feature","properties":{"name_ar":"القنيطرة","name_en":"Quneitra"},"geometry":{"type":"Polygon","coordinates":[[[35.73,32.65],[35.73,33.02],[35.78,33.28],[35.82,33.48],[35.8,33.12],[35.8,32.88],[35.85,32.72],[35.9,32.6],[36.0,32.52],[36.12,32.5],[36.22,32.55],[36.18,32.72],[36.1,32.88],[35.98,32.88],[35.88,32.72],[35.78,32.68],[35.73,32.65]]]}},{"type":"Feature","properties":{"name_ar":"درعا","name_en":"Daraa"},"geometry":{"type":"Polygon","coordinates":[[[35.92,32.3],[36.1,32.3],[36.4,32.3],[36.6,32.3],[36.82,32.31],[36.82,32.5],[36.62,32.58],[36.42,32.68],[36.22,32.78],[36.08,32.85],[35.95,32.8],[35.88,32.65],[35.88,32.5],[35.92,32.3]]]}},{"type":"Feature","properties":{"name_ar":"السويداء","name_en":"As-Suwayda"},"geometry":{"type":"Polygon","coordinates":[[[36.82,32.31],[37.0,32.3],[37.5,32.3],[38.0,32.31],[38.2,32.35],[38.18,32.58],[38.0,32.72],[37.75,32.88],[37.5,33.0],[37.25,33.1],[36.98,33.12],[36.82,33.08],[36.82,32.9],[36.8,32.72],[36.8,32.52],[36.82,32.31]]]}}]}